{
    "links": {
        "self": "http://www.neowsapp.com/rest/v1/neo/3698513?api_key=iIulBulltgU6a56xZRHN4H3l9WmuAYTsLGpBGhQ2"
    },
    "id": "3698513",
    "neo_reference_id": "3698513",
    "name": "(2014 HM197)",
    "designation": "2014 HM197",
    "nasa_jpl_url": "http://ssd.jpl.nasa.gov/sbdb.cgi?sstr=3698513",
    "absolute_magnitude_h": 27.2,
    "estimated_diameter": {
        "kilometers": {
            "estimated_diameter_min": 0.0096506147,
            "estimated_diameter_max": 0.0215794305
        },
        "meters": {
            "estimated_diameter_min": 9.6506146958,
            "estimated_diameter_max": 21.5794304844
        },
        "miles": {
            "estimated_diameter_min": 0.0059966121,
            "estimated_diameter_max": 0.0134088323
        },
        "feet": {
            "estimated_diameter_min": 31.6621227185,
            "estimated_diameter_max": 70.7986587106
        }
    },
    "is_potentially_hazardous_asteroid": false,
    "close_approach_data": [
        {
            "close_approach_date": "2014-05-04",
            "close_approach_date_full": "2014-May-04 19:20",
            "epoch_date_close_approach": 1399231200000,
            "relative_velocity": {
                "kilometers_per_second": "15.1173354928",
                "kilometers_per_hour": "54422.4077740832",
                "miles_per_hour": "33815.9677638463"
            },
            "miss_distance": {
                "astronomical": "0.0142491433",
                "lunar": "5.5429167437",
                "kilometers": "2131641.487004771",
                "miles": "1324540.6002609998"
            },
            "orbiting_body": "Earth"
        }
    ],
    "orbital_data": {
        "orbit_id": "4",
        "orbit_determination_date": "2019-07-19 05:25:46",
        "first_observation_date": "2014-04-24",
        "last_observation_date": "2014-04-29",
        "data_arc_in_days": 5,
        "observations_used": 31,
        "orbit_uncertainty": "9",
        "minimum_orbit_intersection": ".0126795",
        "jupiter_tisserand_invariant": "3.327",
        "epoch_osculation": "2456775.5",
        "eccentricity": ".6301188161520069",
        "semi_major_axis": "2.254454618075297",
        "inclination": "4.626797398734735",
        "ascending_node_longitude": "215.8584195259228",
        "orbital_period": "1236.40477321704",
        "perihelion_distance": ".8338803430652659",
        "perihelion_argument": "65.66695114573712",
        "aphelion_distance": "3.675028893085328",
        "perihelion_time": "2456821.881773428568",
        "mean_anomaly": "346.4951682523524",
        "mean_motion": ".2911667827545706",
        "equinox": "J2000",
        "orbit_class": {
            "orbit_class_type": "APO",
            "orbit_class_description": "Near-Earth asteroid orbits which cross the Earth’s orbit similar to that of 1862 Apollo",
            "orbit_class_range": "a (semi-major axis) > 1.0 AU; q (perihelion) < 1.017 AU"
        }
    },
    "is_sentry_object": false
}